{
  "norad_id": 59302,
  "name": "STARLINK-31447",
  "history": [
    {
      "epoch": "2026-03-28T18:41:31.737984Z",
      "apogee_km": 483.56331040098394,
      "perigee_km": 482.7893542570964,
      "latitude_deg": 2.5589991690014685e-05,
      "longitude_deg": 16.333690510717886,
      "height_km": 482.89649805316714,
      "semi_major_axis_km": 6861.313332329039,
      "eccentricity": 5.64e-05,
      "inclination_deg": 43.0007,
      "raan_deg": 122.9103,
      "arg_perigee_deg": 278.3022,
      "mean_anomaly_deg": 81.7766,
      "mean_motion_rev_day": 15.27537509
    },
    {
      "epoch": "2026-03-29T02:32:19.442976Z",
      "apogee_km": 484.0642476293506,
      "perigee_km": 482.3091210308985,
      "latitude_deg": 1.3737729547474473e-05,
      "longitude_deg": -103.53294074406064,
      "height_km": 482.43969589960574,
      "semi_major_axis_km": 6861.323684330124,
      "eccentricity": 0.0001279,
      "inclination_deg": 42.9987,
      "raan_deg": 121.0647,
      "arg_perigee_deg": 306.6064,
      "mean_anomaly_deg": 53.467,
      "mean_motion_rev_day": 15.27534052
    },
    {
      "epoch": "2026-03-30T02:04:36.383808Z",
      "apogee_km": 484.2890494981957,
      "perigee_km": 481.7666108600288,
      "latitude_deg": -7.137508648719778e-06,
      "longitude_deg": -103.10872216899497,
      "height_km": 482.76781741503623,
      "semi_major_axis_km": 6861.164830179112,
      "eccentricity": 0.00018382,
      "inclination_deg": 43.0039,
      "raan_deg": 115.5262,
      "arg_perigee_deg": 271.704,
      "mean_anomaly_deg": 88.3601,
      "mean_motion_rev_day": 15.27587102
    },
    {
      "epoch": "2026-03-30T08:21:13.209120Z",
      "apogee_km": 484.2443411956756,
      "perigee_km": 481.7685661918458,
      "latitude_deg": 4.634313881133784e-05,
      "longitude_deg": 161.0031134045279,
      "height_km": 482.70427707244045,
      "semi_major_axis_km": 6861.14345369376,
      "eccentricity": 0.00018042,
      "inclination_deg": 43.0036,
      "raan_deg": 114.0492,
      "arg_perigee_deg": 273.6871,
      "mean_anomaly_deg": 86.3775,
      "mean_motion_rev_day": 15.27594241
    },
    {
      "epoch": "2026-03-31T01:36:57.748320Z",
      "apogee_km": 484.035511691839,
      "perigee_km": 482.17789857111256,
      "latitude_deg": 1.2020497892759158e-05,
      "longitude_deg": -102.70254277298558,
      "height_km": 482.9404542285121,
      "semi_major_axis_km": 6861.2437051314755,
      "eccentricity": 0.00013537,
      "inclination_deg": 43.0037,
      "raan_deg": 109.9881,
      "arg_perigee_deg": 266.5012,
      "mean_anomaly_deg": 93.5685,
      "mean_motion_rev_day": 15.27560761
    },
    {
      "epoch": "2026-04-01T01:09:18.473472Z",
      "apogee_km": 483.8767504171483,
      "perigee_km": 482.1389596482659,
      "latitude_deg": -1.5697982553864072e-05,
      "longitude_deg": -102.29674185030976,
      "height_km": 482.6974909529576,
      "semi_major_axis_km": 6861.144855032707,
      "eccentricity": 0.00012664,
      "inclination_deg": 43.002,
      "raan_deg": 104.447,
      "arg_perigee_deg": 275.7587,
      "mean_anomaly_deg": 84.312,
      "mean_motion_rev_day": 15.27593773
    },
    {
      "epoch": "2026-04-02T06:58:16.658976Z",
      "apogee_km": 484.59915468081545,
      "perigee_km": 481.51271565086154,
      "latitude_deg": 2.399869941801497e-05,
      "longitude_deg": 162.2214559664317,
      "height_km": 482.60844456022426,
      "semi_major_axis_km": 6861.192935165838,
      "eccentricity": 0.00022492,
      "inclination_deg": 43.0046,
      "raan_deg": 97.4321,
      "arg_perigee_deg": 278.3975,
      "mean_anomaly_deg": 81.6622,
      "mean_motion_rev_day": 15.27577716
    },
    {
      "epoch": "2026-04-03T06:30:36.651456Z",
      "apogee_km": 483.96014986897353,
      "perigee_km": 482.11586602683656,
      "latitude_deg": -4.479679119887519e-05,
      "longitude_deg": 162.6301733511904,
      "height_km": 482.9634522532117,
      "semi_major_axis_km": 6861.175007947904,
      "eccentricity": 0.0001344,
      "inclination_deg": 43.0015,
      "raan_deg": 91.8909,
      "arg_perigee_deg": 260.7232,
      "mean_anomaly_deg": 99.3467,
      "mean_motion_rev_day": 15.27583703
    },
    {
      "epoch": "2026-04-04T06:02:58.825536Z",
      "apogee_km": 483.8634819514109,
      "perigee_km": 482.2911660769196,
      "latitude_deg": 3.6134481998885334e-05,
      "longitude_deg": 163.034434740524,
      "height_km": 482.88797643450204,
      "semi_major_axis_km": 6861.214324014165,
      "eccentricity": 0.00011458,
      "inclination_deg": 43.0033,
      "raan_deg": 86.3542,
      "arg_perigee_deg": 267.5354,
      "mean_anomaly_deg": 92.5367,
      "mean_motion_rev_day": 15.27570573
    },
    {
      "epoch": "2026-04-05T05:35:19.360608Z",
      "apogee_km": 483.8147674643151,
      "perigee_km": 482.2998157647262,
      "latitude_deg": 7.466459916349833e-06,
      "longitude_deg": 163.4404263234358,
      "height_km": 483.11020993350127,
      "semi_major_axis_km": 6861.19429161452,
      "eccentricity": 0.0001104,
      "inclination_deg": 43.0019,
      "raan_deg": 80.8125,
      "arg_perigee_deg": 248.6019,
      "mean_anomaly_deg": 111.4715,
      "mean_motion_rev_day": 15.27577263
    },
    {
      "epoch": "2026-04-06T06:41:51.151200Z",
      "apogee_km": 483.89948510266095,
      "perigee_km": 482.313440063851,
      "latitude_deg": -1.3713562284035948e-05,
      "longitude_deg": 139.86935783541415,
      "height_km": 482.893778208738,
      "semi_major_axis_km": 6861.243462583256,
      "eccentricity": 0.00011558,
      "inclination_deg": 43.0027,
      "raan_deg": 74.9051,
      "arg_perigee_deg": 269.2401,
      "mean_anomaly_deg": 90.8318,
      "mean_motion_rev_day": 15.27560842
    }
  ]
}